satname,norad_id,inclination_deg,eccentricity,mean_motion_rev_per_day,perigee_km,apogee_km,l1,l2
STARLINK-1008,44714,53.0555,0.0001564,15.06409692,546.0987336447542,548.2649733821336,1 44714U 19074B   25308.44197955  .00004706  00000+0  33452-3 0  9999,2 44714  53.0555  28.8735 0001564 122.0172 238.0969 15.06409692329877
STARLINK-1010,44716,53.0409,0.0005191,16.03436145,261.4626642908088,268.3594767976474,1 44716U 19074D   25308.30157669  .00557490  15505-3  87195-3 0  9990,2 44716  53.0409 312.2487 0005191  70.4138 289.7453 16.03436145330918
STARLINK-1011,44717,53.0474,0.0004533,15.87737344,305.5970069900404,311.65922824567224,1 44717U 19074E   25308.91668980  .00175142  00000+0  62906-3 0  9994,2 44717  53.0474   6.6924 0004533 339.5652  89.6407 15.87737344  5999
STARLINK-1012,44718,53.0542,0.0001339,15.06421678,546.2178235115243,548.0724140629354,1 44718U 19074F   25308.55256226  .00009592  00000+0  66161-3 0  9993,2 44718  53.0542  28.3801 0001339  78.7824 281.3315 15.06421678329882
STARLINK-1017,44723,53.0541,0.0001594,15.15241137,519.1469834804511,521.346188167613,1 44723U 19074L   25308.63552350  .00019251  00000+0  10254-2 0  9999,2 44723  53.0541  24.3498 0001594 294.8820  65.2007 15.15241137329950
STARLINK-1019,44724,53.0559,0.0001264,15.23112159,495.59116246748454,497.32906061728227,1 44724U 19074M   25308.91668980  .00041204  00000+0  17284-2 0  9991,2 44724  53.0559  26.1640 0001264  66.2029  71.5309 15.23112159  5748
STARLINK-1020,44725,53.0545,0.0001384,15.06422378,546.1845146920095,548.1014321886578,1 44725U 19074N   25308.68709464  .00008869  00000+0  61315-3 0  9994,2 44725  53.0545  47.7758 0001384  77.9435 282.1709 15.06422378329624
STARLINK-1031,44736,53.0509,0.0005201,15.48443208,417.7432625857591,424.816015773833,1 44736U 19074Z   25308.53846324  .00082058  00000+0  15125-2 0  9996,2 44736  53.0509  16.5666 0005201 271.8894  88.1517 15.48443208330066
STARLINK-1036,44741,53.0557,0.0001251,15.06407374,546.3225995052017,548.0553160598392,1 44741U 19074AE  25308.45119511  .00001007  00000+0  86473-4 0  9995,2 44741  53.0557  48.8339 0001251  86.9393 273.1739 15.06407374329596
STARLINK-1039,44744,53.0511,0.0004192,15.13218678,523.497427120069,529.286184070681,1 44744U 19074AH  25308.76472406  .00043255  00000+0  24090-2 0  9993,2 44744  53.0511  65.1939 0004192 162.3663 197.7475 15.13218678329394
STARLINK-1042,44747,53.0471,0.0003346,15.4327725,434.16458127790975,438.72489937853607,1 44747U 19074AL  25308.80079610  .00017751  00000+0  40115-3 0  9990,2 44747  53.0471 331.0245 0003346  97.4902 262.6483 15.43277250330747
STARLINK-1043,44748,53.0546,0.0001391,15.06398749,546.2520755580163,548.1787085934911,1 44748U 19074AM  25308.75528726  .00000817  00000+0  73738-4 0  9995,2 44748  53.0546  67.4695 0001391  86.1198 273.9950 15.06398749329366
STARLINK-1046,44751,53.0549,0.0001406,15.06408378,546.2121802969095,548.1595810909603,1 44751U 19074AQ  25308.70367378  .00001640  00000+0  12892-3 0  9996,2 44751  53.0549  67.6997 0001406  80.0797 280.0351 15.06408378329358
STARLINK-1047,44752,53.0736,0.0002711,15.29330577,475.95359169099993,479.6708873686721,1 44752U 19074AR  25308.54982378  .00009004  00000+0  32422-3 0  9995,2 44752  53.0736   9.1857 0002711 160.5755 199.5348 15.29330577330173
STARLINK-1048,44753,53.0548,0.000137,15.06438231,546.1456312074579,548.0431446077446,1 44753U 19074AS  25308.59679382  .00013014  00000+0  89005-3 0  9994,2 44753  53.0548  28.1811 0001370  89.6021 270.5125 15.06438231329894
STARLINK-1053,44758,53.0411,0.0003803,15.60925394,382.41073647623307,387.55476535878006,1 44758U 19074AX  25308.83205477  .00052240  00000+0  61447-3 0  9990,2 44758  53.0411 343.7589 0003803  40.5253 319.6042 15.60925394330551
STARLINK-1054,44759,53.0356,0.0006446,15.96097757,280.962129372092,289.5525773724603,1 44759U 19074AY  25308.91668980  .00443815  91227-4  10560-2 0  9999,2 44759  53.0356   6.1306 0006446 351.6051 329.5965 15.96097757  5886
STARLINK-1056,44761,53.0322,0.000514,16.16096224,226.77566675004618,233.56900874925213,1 44761U 19074BA  25309.01573619  .01127805  89872-3  77487-3 0  9991,2 44761  53.0322 350.6878 0005140  24.8504 335.2779 16.16096224330468
STARLINK-1060,44765,53.0538,0.0004993,15.64051749,372.5949689566896,379.3396175039088,1 44765U 19074BE  25308.91668980  .00123366  00000+0  12661-2 0  9990,2 44765  53.0538  29.4430 0004993 353.1081  11.5750 15.64051749  5871
STARLINK-1063,44768,53.0541,0.0001314,15.06410858,546.2682935042203,548.0882663597858,1 44768U 19074BH  25308.82531958  .00008227  00000+0  57040-3 0  9996,2 44768  53.0541  67.1555 0001314  87.2830 272.8309 15.06410858329389
STARLINK-1067,44771,53.0539,0.000138,15.0640226,546.2489342273075,548.1603285175661,1 44771U 19074BL  25308.74791358  .00001332  00000+0  10827-3 0  9995,2 44771  53.0539  67.5036 0001380  86.0105 274.1042 15.06402260329368
STARLINK-1068,44772,53.0539,0.0001414,15.06410881,546.1989698705493,548.1574490117782,1 44772U 19074BM  25308.67234834  .00003557  00000+0  25750-3 0  9991,2 44772  53.0539  47.8414 0001414  91.9453 268.1698 15.06410881329626
STARLINK-1112,44925,53.0476,0.0004569,15.55079283,398.82436422932733,405.01998230185836,1 44925U 20001M   25308.83147779  .00035670  00000+0  52562-3 0  9994,2 44925  53.0476 143.4015 0004569 157.6080 202.5130 15.55079283321644
STARLINK-1114,44927,53.0539,0.0001551,15.06392193,546.1613600997198,548.3096106446819,1 44927U 20001P   25307.98125917  .00002531  00000+0  18881-3 0  9997,2 44927  53.0539 190.9491 0001551  92.7711 267.3456 15.06392193320901
STARLINK-1123,44930,53.0531,0.0001418,15.06400865,546.2268927895402,548.1909208887191,1 44930U 20001S   25308.65946903  .00003546  00000+0  25682-3 0  9996,2 44930  53.0531 187.9019 0001418  93.3946 266.7205 15.06400865321001
STARLINK-1144,44933,53.0429,0.0009724,15.61968867,375.39681983485207,388.54387660567045,1 44933U 20001V   25308.91668980  .00223175  00000+0  24461-2 0  9999,2 44933  53.0429 119.8438 0009724 113.3172  90.8743 15.61968867  5937
STARLINK-1091,44940,53.0291,0.0002614,16.11976669,239.69595639877207,243.1566640973706,1 44940U 20001AC  25308.14797722  .01086444  75051-3  99491-3 0  9994,2 44940  53.0291  98.2503 0002614 315.2411  44.8412 16.11976669322204
STARLINK-1094,44941,53.0519,0.0001524,15.06400445,546.1547711653275,548.2656169900829,1 44941U 20001AD  25308.60601979  .00004065  00000+0  29164-3 0  9990,2 44941  53.0519 168.1425 0001524  99.8295 260.2866 15.06400445321272
STARLINK-1096,44942,52.9843,0.0007937,15.93414651,287.44078542841726,298.0301283664967,1 44942U 20001AE  25308.91668980  .00322177  51066-4  88661-3 0  9997,2 44942  52.9843 282.7211 0007937  66.0766  25.2810 15.93414651  6009
STARLINK-1122,44949,53.0522,0.0001418,15.06403904,546.2175800375435,548.1816054952515,1 44949U 20001AM  25308.62814302  .00005877  00000+0  41305-3 0  9999,2 44949  53.0522 168.0383 0001418  91.9907 268.1244 15.06403904321271
STARLINK-1080,44961,53.0531,0.0001449,15.063965,546.2188003945657,548.2257695153448,1 44961U 20001AZ  25308.82534282  .00002357  00000+0  17706-3 0  9999,2 44961  53.0531 147.1570 0001449  92.8049 267.3106 15.06396500321598
STARLINK-1090,44968,53.052,0.0001906,15.06399955,545.8917243953692,548.5316673182297,1 44968U 20001BG  25308.82899426 -.00008769  00000+0 -57048-3 0  9998,2 44968  53.0520 147.1432 0001906  76.7250 283.3952 15.06399955321597
STARLINK-1107,44972,53.0071,0.0005316,15.70197541,354.7508488067533,361.9130626004562,1 44972U 20001BL  25308.91668980  .00150884  00000+0  12023-2 0  9999,2 44972  53.0071  59.2397 0005316 309.0573 238.6799 15.70197541  5954
STARLINK-1132,45044,53.0537,0.0001323,15.06398365,546.3003447051497,548.1327932595023,1 45044U 20006A   25308.85481537  .00001470  00000+0  11757-3 0  9999,2 45044  53.0537 107.0237 0001323  91.9321 268.1819 15.06398365317929
STARLINK-1131,45047,53.0542,8.68e-05,15.06384794,546.657038230137,547.8592868303522,1 45047U 20006D   25308.49918189  .00000546  00000+0  55567-4 0  9991,2 45047  53.0542 129.1607 0000868  98.5839 261.5248 15.06384794317580
STARLINK-1134,45048,53.0401,0.0012282,15.26667851,477.3514930892361,494.21202312665173,1 45048U 20006E   25297.87285069  .00016521  00000+0  63194-3 0  9999,2 45048  53.0401 155.6330 0012282 116.8822 243.3433 15.26667851316281
STARLINK-1156,45054,53.0523,0.0001515,15.06404382,546.1489395000999,548.2473160438149,1 45054U 20006L   25308.80136314  .00001627  00000+0  12808-3 0  9997,2 45054  53.0523 127.2638 0001515  89.8574 270.2589 15.06404382317636
STARLINK-1159,45057,53.0535,0.0001251,15.34006198,463.0180175595551,464.7298887000279,1 45057U 20006P   25308.91668980  .01870785  00000+0  50148-1 0  9998,2 45057  53.0535 125.2221 0001251  58.6432 193.6508 15.34006198  5796
STARLINK-1166,45060,53.0509,0.0001564,15.06397422,546.1363333980362,548.302584898458,1 45060U 20006S   25308.76081633 -.00000590  00000+0 -20696-4 0  9997,2 45060  53.0509 127.4466 0001564  95.7361 264.3806 15.06397422317634
STARLINK-1169,45061,53.053,0.0001416,15.06406672,546.2104828344209,548.1717357549733,1 45061U 20006T   25308.76818441  .00001481  00000+0  11830-3 0  9990,2 45061  53.0530 127.4144 0001416  92.2490 267.8661 15.06406672317638
STARLINK-1171,45062,53.0526,4.07e-05,15.33523006,465.03256500485713,465.58962167965456,1 45062U 20006U   25308.91668980  .00104806  00000+0  31561-2 0  9996,2 45062  53.0526 123.6306 0000407  19.7671 308.4284 15.33523006  5791
STARLINK-1133,45064,53.0542,0.0001501,15.0640063,546.1701325509621,548.2491216084118,1 45064U 20006W   25308.83269553  .00000970  00000+0  84000-4 0  9997,2 45064  53.0542 107.1201 0001501  90.7733 269.3428 15.06400630317929
STARLINK-1167,45071,53.0545,0.0001272,15.06398904,546.334012258616,548.0958217863072,1 45071U 20006AD  25308.85850491  .00001780  00000+0  13834-3 0  9990,2 45071  53.0545 107.0074 0001272  93.4756 266.6379 15.06398904317922
